{
  "type": "FeatureCollection",
  "features": [
    {
      "type": "Feature",
      "properties": {
        "norad_id": 34079,
        "name": "IRIDIUM 33 DEB",
        "group": "iridium-33-debris",
        "lat": -12.470284535949185,
        "lon": 9.844414904014686,
        "alt_km": 619.7425998904282,
        "timestamp": "2025-12-08T08:59:01.151391+00:00",
        "meta_object_name": "IRIDIUM 33 DEB",
        "meta_object_id": "1997-051CN",
        "meta_epoch": "2025-12-07T20:52:32.558592",
        "meta_mean_motion": 14.83340445,
        "meta_eccentricity": 0.00061753,
        "meta_inclination": 86.3774,
        "meta_ra_of_asc_node": 10.8765,
        "meta_arg_of_pericenter": 23.6265,
        "meta_mean_anomaly": 151.7698,
        "meta_ephemeris_type": 0,
        "meta_classification_type": "U",
        "meta_norad_cat_id": 34079,
        "meta_element_set_no": 999,
        "meta_rev_at_epoch": 88905,
        "meta_bstar": 0.0027063735,
        "meta_mean_motion_dot": 0.00022246,
        "meta_mean_motion_ddot": 0,
        "tle_line1": "1 34079U 97051CN  25341.86982128  .00022246  00000+0  27064-2 0  9990",
        "tle_line2": "2 34079  86.3774  10.8765 0006175  23.6265 151.7698 14.83340445889053"
      },
      "geometry": {
        "type": "Point",
        "coordinates": [
          9.844414904014686,
          -12.470284535949185
        ]
      }
    },
    {
      "type": "Feature",
      "properties": {
        "norad_id": 34088,
        "name": "IRIDIUM 33 DEB",
        "group": "iridium-33-debris",
        "lat": -43.049009634060546,
        "lon": 29.343711530695828,
        "alt_km": 603.4066243548641,
        "timestamp": "2025-12-08T08:59:01.151402+00:00",
        "meta_object_name": "IRIDIUM 33 DEB",
        "meta_object_id": "1997-051CX",
        "meta_epoch": "2025-12-07T15:59:55.064256",
        "meta_mean_motion": 14.91020771,
        "meta_eccentricity": 0.0005328,
        "meta_inclination": 86.3847,
        "meta_ra_of_asc_node": 33.0545,
        "meta_arg_of_pericenter": 195.781,
        "meta_mean_anomaly": 284.8122,
        "meta_ephemeris_type": 0,
        "meta_classification_type": "U",
        "meta_norad_cat_id": 34088,
        "meta_element_set_no": 999,
        "meta_rev_at_epoch": 88666,
        "meta_bstar": 0.0039560739,
        "meta_mean_motion_dot": 0.00039325,
        "meta_mean_motion_ddot": 0,
        "tle_line1": "1 34088U 97051CX  25341.66660954  .00039325  00000+0  39561-2 0  9999",
        "tle_line2": "2 34088  86.3847  33.0545 0005328 195.7810 284.8122 14.91020771886663"
      },
      "geometry": {
        "type": "Point",
        "coordinates": [
          29.343711530695828,
          -43.049009634060546
        ]
      }
    },
    {
      "type": "Feature",
      "properties": {
        "norad_id": 34091,
        "name": "IRIDIUM 33 DEB",
        "group": "iridium-33-debris",
        "lat": -65.8898526533177,
        "lon": 60.61420085831684,
        "alt_km": 610.0810434362029,
        "timestamp": "2025-12-08T08:59:01.151412+00:00",
        "meta_object_name": "IRIDIUM 33 DEB",
        "meta_object_id": "1997-051DA",
        "meta_epoch": "2025-12-07T17:04:02.135712",
        "meta_mean_motion": 14.81237969,
        "meta_eccentricity": 0.00331325,
        "meta_inclination": 86.3419,
        "meta_ra_of_asc_node": 69.1363,
        "meta_arg_of_pericenter": 311.2818,
        "meta_mean_anomaly": 48.5552,
        "meta_ephemeris_type": 0,
        "meta_classification_type": "U",
        "meta_norad_cat_id": 34091,
        "meta_element_set_no": 999,
        "meta_rev_at_epoch": 87792,
        "meta_bstar": 0.007996222,
        "meta_mean_motion_dot": 0.00063385,
        "meta_mean_motion_ddot": 0,
        "tle_line1": "1 34091U 97051DA  25341.71113583  .00063385  00000+0  79962-2 0  9992",
        "tle_line2": "2 34091  86.3419  69.1363 0033132 311.2818  48.5552 14.81237969877926"
      },
      "geometry": {
        "type": "Point",
        "coordinates": [
          60.61420085831684,
          -65.8898526533177
        ]
      }
    },
    {
      "type": "Feature",
      "properties": {
        "norad_id": 34097,
        "name": "IRIDIUM 33 DEB",
        "group": "iridium-33-debris",
        "lat": -16.806998111784967,
        "lon": -175.5152860588637,
        "alt_km": 840.4394693817403,
        "timestamp": "2025-12-08T08:59:01.151423+00:00",
        "meta_object_name": "IRIDIUM 33 DEB",
        "meta_object_id": "1997-051DG",
        "meta_epoch": "2025-12-07T18:40:48.134496",
        "meta_mean_motion": 14.3471964,
        "meta_eccentricity": 0.00831758,
        "meta_inclination": 86.1998,
        "meta_ra_of_asc_node": 3.5973,
        "meta_arg_of_pericenter": 18.3054,
        "meta_mean_anomaly": 342.1104,
        "meta_ephemeris_type": 0,
        "meta_classification_type": "U",
        "meta_norad_cat_id": 34097,
        "meta_element_set_no": 999,
        "meta_rev_at_epoch": 87048,
        "meta_bstar": 0.0022730576,
        "meta_mean_motion_dot": 6.712e-05,
        "meta_mean_motion_ddot": 0,
        "tle_line1": "1 34097U 97051DG  25341.77833489  .00006712  00000+0  22731-2 0  9991",
        "tle_line2": "2 34097  86.1998   3.5973 0083175  18.3054 342.1104 14.34719640870489"
      },
      "geometry": {
        "type": "Point",
        "coordinates": [
          -175.5152860588637,
          -16.806998111784967
        ]
      }
    },
    {
      "type": "Feature",
      "properties": {
        "norad_id": 34145,
        "name": "IRIDIUM 33 DEB",
        "group": "iridium-33-debris",
        "lat": -12.567629665683034,
        "lon": -26.37609419601043,
        "alt_km": 775.3681276732286,
        "timestamp": "2025-12-08T08:59:01.151433+00:00",
        "meta_object_name": "IRIDIUM 33 DEB",
        "meta_object_id": "1997-051DY",
        "meta_epoch": "2025-12-07T23:03:04.751424",
        "meta_mean_motion": 14.42235871,
        "meta_eccentricity": 0.0055559,
        "meta_inclination": 86.2113,
        "meta_ra_of_asc_node": 334.6546,
        "meta_arg_of_pericenter": 109.0134,
        "meta_mean_anomaly": 251.7097,
        "meta_ephemeris_type": 0,
        "meta_classification_type": "U",
        "meta_norad_cat_id": 34145,
        "meta_element_set_no": 999,
        "meta_rev_at_epoch": 87569,
        "meta_bstar": 0.0013920574,
        "meta_mean_motion_dot": 4.693e-05,
        "meta_mean_motion_ddot": 0,
        "tle_line1": "1 34145U 97051DY  25341.96047166  .00004693  00000+0  13921-2 0  9992",
        "tle_line2": "2 34145  86.2113 334.6546 0055559 109.0134 251.7097 14.42235871875691"
      },
      "geometry": {
        "type": "Point",
        "coordinates": [
          -26.37609419601043,
          -12.567629665683034
        ]
      }
    },
    {
      "type": "Feature",
      "properties": {
        "norad_id": 34146,
        "name": "IRIDIUM 33 DEB",
        "group": "iridium-33-debris",
        "lat": -59.52099412012823,
        "lon": 178.06956062969718,
        "alt_km": 718.2764789507846,
        "timestamp": "2025-12-08T08:59:01.151443+00:00",
        "meta_object_name": "IRIDIUM 33 DEB",
        "meta_object_id": "1997-051DZ",
        "meta_epoch": "2025-12-07T23:41:17.071296",
        "meta_mean_motion": 14.48997884,
        "meta_eccentricity": 0.00251435,
        "meta_inclination": 86.2834,
        "meta_ra_of_asc_node": 351.8998,
        "meta_arg_of_pericenter": 238.5733,
        "meta_mean_anomaly": 141.9749,
        "meta_ephemeris_type": 0,
        "meta_classification_type": "U",
        "meta_norad_cat_id": 34146,
        "meta_element_set_no": 999,
        "meta_rev_at_epoch": 88038,
        "meta_bstar": 0.0012899771,
        "meta_mean_motion_dot": 4.929e-05,
        "meta_mean_motion_ddot": 0,
        "tle_line1": "1 34146U 97051DZ  25341.98700314  .00004929  00000+0  12900-2 0  9994",
        "tle_line2": "2 34146  86.2834 351.8998 0025143 238.5733 141.9749 14.48997884880384"
      },
      "geometry": {
        "type": "Point",
        "coordinates": [
          178.06956062969718,
          -59.52099412012823
        ]
      }
    },
    {
      "type": "Feature",
      "properties": {
        "norad_id": 34159,
        "name": "IRIDIUM 33 DEB",
        "group": "iridium-33-debris",
        "lat": 59.84222501432959,
        "lon": -136.2018249029888,
        "alt_km": 776.4341082776346,
        "timestamp": "2025-12-08T08:59:01.151454+00:00",
        "meta_object_name": "IRIDIUM 33 DEB",
        "meta_object_id": "1997-051EN",
        "meta_epoch": "2025-12-07T22:24:36.579744",
        "meta_mean_motion": 14.38475158,
        "meta_eccentricity": 0.0026103,
        "meta_inclination": 86.3515,
        "meta_ra_of_asc_node": 50.2906,
        "meta_arg_of_pericenter": 304.7744,
        "meta_mean_anomaly": 55.0997,
        "meta_ephemeris_type": 0,
        "meta_classification_type": "U",
        "meta_norad_cat_id": 34159,
        "meta_element_set_no": 999,
        "meta_rev_at_epoch": 87890,
        "meta_bstar": 0.00059598171,
        "meta_mean_motion_dot": 1.845e-05,
        "meta_mean_motion_ddot": 0,
        "tle_line1": "1 34159U 97051EN  25341.93375671  .00001845  00000+0  59598-3 0  9996",
        "tle_line2": "2 34159  86.3515  50.2906 0026103 304.7744  55.0997 14.38475158878908"
      },
      "geometry": {
        "type": "Point",
        "coordinates": [
          -136.2018249029888,
          59.84222501432959
        ]
      }
    }
  ]
}